[{"OBJECT_NAME":"SHIJIAN-6 05A (SJ-6 05A)","OBJECT_ID":"2021-122A","EPOCH":"2026-03-09T21:12:10.842048","MEAN_MOTION":14.99085264,"ECCENTRICITY":0.0003221,"INCLINATION":97.4012,"RA_OF_ASC_NODE":42.3306,"ARG_OF_PERICENTER":76.6317,"MEAN_ANOMALY":283.5266,"EPHEMERIS_TYPE":0,"CLASSIFICATION_TYPE":"U","NORAD_CAT_ID":49961,"ELEMENT_SET_NO":999,"REV_AT_EPOCH":23387,"BSTAR":0.00027617,"MEAN_MOTION_DOT":3.299e-5,"MEAN_MOTION_DDOT":0},{"OBJECT_NAME":"NOAA 16 DEB","OBJECT_ID":"2000-055NX","EPOCH":"2026-03-08T23:11:13.556832","MEAN_MOTION":15.01016664,"ECCENTRICITY":0.00157984,"INCLINATION":98.8636,"RA_OF_ASC_NODE":259.6913,"ARG_OF_PERICENTER":295.8562,"MEAN_ANOMALY":64.1029,"EPHEMERIS_TYPE":0,"CLASSIFICATION_TYPE":"U","NORAD_CAT_ID":41658,"ELEMENT_SET_NO":999,"REV_AT_EPOCH":9741,"BSTAR":0.010110988,"MEAN_MOTION_DOT":0.00131742,"MEAN_MOTION_DDOT":0}]
